STARLETTE               
1 07646U 75010A   17290.69846381 -.00000131  00000-0  10955-4 0  9990
2 07646  49.8249 354.8150 0205687  49.4951 312.3665 13.82303202156818
LAGEOS 1                
1 08820U 76039A   17290.92448005  .00000002  00000-0  00000-0 0  9996
2 08820 109.8156 175.4491 0044554 259.4531 302.5969  6.38664696711379
AJISAI (EGS)            
1 16908U 86061A   17291.17482972 -.00000077  00000-0  14157-3 0  9991
2 16908  50.0074 156.3766 0011581  47.5644  94.6481 12.44486678 86750
LAGEOS 2                
1 22195U 92070B   17290.96370416 -.00000009  00000-0  00000-0 0  9992
2 22195  52.6469 106.4323 0137438 244.0881 325.7509  6.47294246590789
STELLA                  
1 22824U 93061B   17291.16099633 -.00000046  00000-0 -11951-6 0  9999
2 22824  98.8339 249.1375 0007279  55.0631   9.6170 14.27370309253555
GRACE-1                 
1 27391U 02012A   17290.66765510  .00023853  00000-0  91053-4 0  9995
2 27391  88.9811 302.7635 0004095 166.8107 298.2151 15.87356676195773
GRACE-2                 
1 27392U 02012B   17291.15201851  .00052894  00000-0  19625-3 0  9995
2 27392  88.9818 302.8509 0004955 159.7345 200.4135 15.87899526876894
LARES                   
1 38077U 12006A   17291.03048284 -.00000022  00000-0  10000-3 0  9992
2 38077  69.4917 296.9087 0008549 165.7753 194.3508 12.54931053260184
